{"fetched_at":"2026-07-09T18:16:57.409Z","source":"https://celestrak.org/NORAD/elements/gp.php?NAME=CENTAURI&FORMAT=JSON","constellation":"myriota","records":[{"OBJECT_NAME":"CENTAURI-1","OBJECT_ID":"2018-099BD","EPOCH":"2026-07-08T17:12:32.251680","CLASSIFICATION_TYPE":"U","MEAN_MOTION":15.16583047,"ECCENTRICITY":0.00125287,"INCLINATION":97.421,"RA_OF_ASC_NODE":240.9755,"ARG_OF_PERICENTER":249.9678,"MEAN_ANOMALY":110.0206,"EPHEMERIS_TYPE":0,"NORAD_CAT_ID":43809,"ELEMENT_SET_NO":999,"REV_AT_EPOCH":41576,"BSTAR":0.00016413427,"MEAN_MOTION_DOT":0.00003144,"MEAN_MOTION_DDOT":0},{"OBJECT_NAME":"CENTAURI-6","OBJECT_ID":"2024-066K","EPOCH":"2026-07-08T05:30:31.485312","CLASSIFICATION_TYPE":"U","MEAN_MOTION":15.05992949,"ECCENTRICITY":0.00013587,"INCLINATION":45.6048,"RA_OF_ASC_NODE":144.5899,"ARG_OF_PERICENTER":239.7032,"MEAN_ANOMALY":120.3718,"EPHEMERIS_TYPE":0,"NORAD_CAT_ID":59451,"ELEMENT_SET_NO":999,"REV_AT_EPOCH":12329,"BSTAR":0.00017938208,"MEAN_MOTION_DOT":0.00002409,"MEAN_MOTION_DDOT":0},{"OBJECT_NAME":"CENTAURI-7","OBJECT_ID":"2025-009DD","EPOCH":"2026-07-08T04:06:15.167232","CLASSIFICATION_TYPE":"U","MEAN_MOTION":14.97939827,"ECCENTRICITY":0.00027578,"INCLINATION":97.7086,"RA_OF_ASC_NODE":269.1793,"ARG_OF_PERICENTER":115.2331,"MEAN_ANOMALY":244.9178,"EPHEMERIS_TYPE":0,"NORAD_CAT_ID":62708,"ELEMENT_SET_NO":999,"REV_AT_EPOCH":8060,"BSTAR":0.00025321264,"MEAN_MOTION_DOT":0.00002927,"MEAN_MOTION_DDOT":0},{"OBJECT_NAME":"CENTAURI-8","OBJECT_ID":"2025-009DK","EPOCH":"2026-07-08T19:12:59.780160","CLASSIFICATION_TYPE":"U","MEAN_MOTION":14.97906927,"ECCENTRICITY":0.00028459,"INCLINATION":97.7043,"RA_OF_ASC_NODE":269.6269,"ARG_OF_PERICENTER":83.8603,"MEAN_ANOMALY":276.2943,"EPHEMERIS_TYPE":0,"NORAD_CAT_ID":62714,"ELEMENT_SET_NO":999,"REV_AT_EPOCH":8071,"BSTAR":0.00011602869,"MEAN_MOTION_DOT":0.00001308,"MEAN_MOTION_DDOT":0}]}
