CENTAURI-1              
1 43809U 18099BD  26189.71703995  .00003144  00000+0  16413-3 0  9997
2 43809  97.4210 240.9755 0012528 249.9678 110.0206 15.16583047415767
CENTAURI-6              
1 59451U 24066K   26189.22953108  .00002409  00000+0  17938-3 0  9993
2 59451  45.6048 144.5899 0001358 239.7032 120.3718 15.05992949123298
CENTAURI-7              
1 62708U 25009DD  26189.17100888  .00002927  00000+0  25321-3 0  9993
2 62708  97.7086 269.1793 0002757 115.2331 244.9178 14.97939827 80604
CENTAURI-8              
1 62714U 25009DK  26189.80069190  .00001308  00000+0  11603-3 0  9990
2 62714  97.7043 269.6269 0002845  83.8603 276.2943 14.97906927 80712
